OBJECT_NAME,OBJECT_ID,EPOCH,MEAN_MOTION,ECCENTRICITY,INCLINATION,RA_OF_ASC_NODE,ARG_OF_PERICENTER,MEAN_ANOMALY,EPHEMERIS_TYPE,CLASSIFICATION_TYPE,NORAD_CAT_ID,ELEMENT_SET_NO,REV_AT_EPOCH,BSTAR,MEAN_MOTION_DOT,MEAN_MOTION_DDOT
SAUDISAT 1C (SO-50),2002-058C,2026-07-06T02:29:05.783424,14.83086846,.0074778,64.5520,70.4578,258.9395,100.3295,0,U,27607,999,26726,.13138747E-3,.968E-5,0
PISAT,2016-059B,2026-07-06T13:21:44.482176,14.69019012,.0029947,97.8185,187.1776,141.2876,219.0484,0,U,41784,999,52258,.17079E-3,.961E-5,0
FLYING LAPTOP,2017-042G,2026-07-06T20:22:08.622624,15.01277851,.001997,97.4781,342.6366,58.8580,301.4600,0,U,42831,999,48940,.28409E-3,.361E-4,0
SALSAT,2020-068K,2026-07-06T13:41:31.479072,15.30088375,.0008365,97.8859,191.8188,225.6933,134.3621,0,U,46495,999,31832,.2235E-3,.6429E-4,0
